ONEWEB-0225             
1 48799U 21045AJ  26167.98252850 -.00000047  00000+0 -15793-3 0  9990
2 48799  87.9006 259.2388 0001494 110.6922 249.4368 13.15548698244393
ONEWEB-0215             
1 48800U 21045AK  26167.95240617  .00000086  00000+0  19479-3 0  9994
2 48800  87.9014 259.2272 0001493 117.5916 242.5366 13.15546927244266
ONEWEB-0216             
1 48801U 21045AL  26167.96193023 -.00000029  00000+0 -11067-3 0  9998
2 48801  87.9011 259.2402 0001979  98.4542 261.6813 13.15549147244277
ONEWEB-0239             
1 48802U 21045AM  26167.73850721 -.00000082  00000+0 -25300-3 0  9993
2 48802  87.9000 259.2910 0001669 125.0143 235.1145 13.15548787244284
ONEWEB-0249             
1 48967U 21060A   26168.12888804  .00000051  00000+0  99126-4 0  9991
2 48967  87.9098 228.7898 0002074 101.5316 258.6047 13.16595613239603
ONEWEB-0250             
1 48968U 21060B   26168.15660097  .00000087  00000+0  16935-3 0  9992
2 48968  87.9097 226.5406 0002823 113.8494 246.2939 13.25834013240211
ONEWEB-0252             
1 48970U 21060D   26168.15976672  .00000151  00000+0  36067-3 0  9994
2 48970  87.9097 228.7758 0001907  92.2567 267.8782 13.16594293239655
ONEWEB-0253             
1 48971U 21060E   26168.14868410  .00000145  00000+0  34484-3 0  9998
2 48971  87.9096 228.7835 0002079 101.4258 258.7107 13.16594051239586
ONEWEB-0254             
1 48972U 21060F   26168.15818441  .00000131  00000+0  30953-3 0  9991
2 48972  87.9099 228.7791 0001907 106.3799 253.7542 13.16594963239584
ONEWEB-0255             
1 48973U 21060G   26168.12018505  .00000077  00000+0  16800-3 0  9996
2 48973  87.9098 228.7933 0001927 101.8349 258.2998 13.16595484239657
ONEWEB-0256             
1 48974U 21060H   26168.14629909  .00001035  00000+0  26725-2 0  9996
2 48974  87.9117 228.7965 0002217  93.6989 266.4395 13.16596494239627
ONEWEB-0257             
1 48975U 21060J   26168.10276513  .00000041  00000+0  72375-4 0  9992
2 48975  87.9098 228.7880 0001893  97.8541 262.2805 13.16594726239571
ONEWEB-0258             
1 48976U 21060K   26168.10435109  .00000032  00000+0  51243-4 0  9992
2 48976  87.9100 228.7994 0002049  99.2826 260.8536 13.16594650239580
ONEWEB-0259             
1 48977U 21060L   26167.87002898  .00000008  00000+0 -12786-4 0  9994
2 48977  87.9097 228.8453 0002047 103.2272 256.9087 13.16595415239583
ONEWEB-0260             
1 48978U 21060M   26168.08930617  .00000120  00000+0  27949-3 0  9998
2 48978  87.9092 228.8035 0001968  86.4330 273.7026 13.16594393239598
ONEWEB-0261             
1 48979U 21060N   26168.13520588 -.00000286  00000+0 -78243-3 0  9995
2 48979  87.9093 228.7944 0001717 100.3270 259.8055 13.16593515239658
ONEWEB-0262             
1 48980U 21060P   26168.11543384  .00000001  00000+0 -31583-4 0  9995
2 48980  87.9097 228.7841 0002097 106.0760 254.0601 13.16594807239614
ONEWEB-0263             
1 48981U 21060Q   26168.14709779  .00000161  00000+0  38847-3 0  9996
2 48981  87.9097 228.7896 0001760 103.9636 256.1691 13.16595114239589
ONEWEB-0264             
1 48982U 21060R   26168.10831105  .00000026  00000+0  34894-4 0  9991
2 48982  87.9099 228.7997 0001809  93.0812 267.0526 13.16595458239582
ONEWEB-0266             
1 48984U 21060T   26168.12968490  .00000031  00000+0  47762-4 0  9997
2 48984  87.9098 228.7866 0002142  98.5150 261.6224 13.16594060239576
ONEWEB-0267             
1 48985U 21060U   26168.14076782  .00000076  00000+0  16608-3 0  9997
2 48985  87.9098 228.7810 0001848  98.6157 261.5183 13.16594679239586
ONEWEB-0268             
1 48986U 21060V   26168.10908517 -.00000015  00000+0 -71766-4 0  9996
2 48986  87.9102 228.7966 0002032  93.8558 266.2805 13.16596324239844
ONEWEB-0269             
1 48987U 21060W   26168.09010182  .00000070  00000+0  14956-3 0  9993
2 48987  87.9090 228.8032 0002176  93.1587 266.9793 13.16595052239615
ONEWEB-0270             
1 48988U 21060X   26168.10751873  .00000059  00000+0  12056-3 0  9991
2 48988  87.9104 228.7987 0001856 107.2258 252.9076 13.16595462239654
ONEWEB-0271             
1 48989U 21060Y   26168.09485353  .00000096  00000+0  21854-3 0  9994
2 48989  87.9097 228.7914 0001804 101.1640 258.9694 13.16594551239657
ONEWEB-0272             
1 48990U 21060Z   26168.11700942 -.00000009  00000+0 -58384-4 0  9998
2 48990  87.9097 228.7989 0001852  91.0400 269.0943 13.16592954239605
ONEWEB-0273             
1 48991U 21060AA  26168.13918324  .00000086  00000+0  19145-3 0  9990
2 48991  87.9099 228.7937 0001943 100.9944 259.1406 13.16594919239589
ONEWEB-0274             
1 48992U 21060AB  26168.08851369  .00000108  00000+0  24895-3 0  9993
2 48992  87.9089 228.8062 0001924  89.0407 271.0944 13.16594289239613
ONEWEB-0275             
1 48993U 21060AC  26168.15343745  .00000158  00000+0  38067-3 0  9997
2 48993  87.9098 228.7824 0001936  96.4729 263.6622 13.16594503239553
ONEWEB-0276             
1 48994U 21060AD  26168.11068318 -.00000027  00000+0 -10310-3 0  9992
2 48994  87.9096 228.7902 0001975  93.2151 266.9205 13.16594372239564
