OBJECT_NAME,OBJECT_ID,EPOCH,MEAN_MOTION,ECCENTRICITY,INCLINATION,RA_OF_ASC_NODE,ARG_OF_PERICENTER,MEAN_ANOMALY,EPHEMERIS_TYPE,CLASSIFICATION_TYPE,NORAD_CAT_ID,ELEMENT_SET_NO,REV_AT_EPOCH,BSTAR,MEAN_MOTION_DOT,MEAN_MOTION_DDOT
ONEWEB-0225,2021-045AJ,2026-06-16T23:34:50.462400,13.15548698,.0001494,87.9006,259.2388,110.6922,249.4368,0,U,48799,999,24439,-.15793E-3,-.47E-6,0
ONEWEB-0215,2021-045AK,2026-06-16T22:51:27.893088,13.15546927,.0001493,87.9014,259.2272,117.5916,242.5366,0,U,48800,999,24426,.19479E-3,.86E-6,0
ONEWEB-0216,2021-045AL,2026-06-16T23:05:10.771872,13.15549147,.0001979,87.9011,259.2402,98.4542,261.6813,0,U,48801,999,24427,-.11067E-3,-.29E-6,0
ONEWEB-0239,2021-045AM,2026-06-16T17:43:27.022944,13.15548787,.0001669,87.9000,259.2910,125.0143,235.1145,0,U,48802,999,24428,-.253E-3,-.82E-6,0
ONEWEB-0249,2021-060A,2026-06-17T03:05:35.926656,13.16595613,.0002074,87.9098,228.7898,101.5316,258.6047,0,U,48967,999,23960,.99126E-4,.51E-6,0
ONEWEB-0250,2021-060B,2026-06-17T03:45:30.323808,13.25834013,.0002823,87.9097,226.5406,113.8494,246.2939,0,U,48968,999,24021,.16935E-3,.87E-6,0
ONEWEB-0252,2021-060D,2026-06-17T03:50:03.844608,13.16594293,.0001907,87.9097,228.7758,92.2567,267.8782,0,U,48970,999,23965,.36067E-3,.151E-5,0
ONEWEB-0253,2021-060E,2026-06-17T03:34:06.306240,13.16594051,.0002079,87.9096,228.7835,101.4258,258.7107,0,U,48971,999,23958,.34484E-3,.145E-5,0
ONEWEB-0254,2021-060F,2026-06-17T03:47:47.133024,13.16594963,.0001907,87.9099,228.7791,106.3799,253.7542,0,U,48972,999,23958,.30953E-3,.131E-5,0
ONEWEB-0255,2021-060G,2026-06-17T02:53:03.988320,13.16595484,.0001927,87.9098,228.7933,101.8349,258.2998,0,U,48973,999,23965,.168E-3,.77E-6,0
ONEWEB-0256,2021-060H,2026-06-17T03:30:40.241376,13.16596494,.0002217,87.9117,228.7965,93.6989,266.4395,0,U,48974,999,23962,.26725E-2,.1035E-4,0
ONEWEB-0257,2021-060J,2026-06-17T02:27:58.907232,13.16594726,.0001893,87.9098,228.7880,97.8541,262.2805,0,U,48975,999,23957,.72375E-4,.41E-6,0
ONEWEB-0258,2021-060K,2026-06-17T02:30:15.934176,13.16594650,.0002049,87.9100,228.7994,99.2826,260.8536,0,U,48976,999,23958,.51243E-4,.32E-6,0
ONEWEB-0259,2021-060L,2026-06-16T20:52:50.503872,13.16595415,.0002047,87.9097,228.8453,103.2272,256.9087,0,U,48977,999,23958,-.12786E-4,.8E-7,0
ONEWEB-0260,2021-060M,2026-06-17T02:08:36.053088,13.16594393,.0001968,87.9092,228.8035,86.4330,273.7026,0,U,48978,999,23959,.27949E-3,.12E-5,0
ONEWEB-0261,2021-060N,2026-06-17T03:14:41.788032,13.16593515,.0001717,87.9093,228.7944,100.3270,259.8055,0,U,48979,999,23965,-.78243E-3,-.286E-5,0
ONEWEB-0262,2021-060P,2026-06-17T02:46:13.483776,13.16594807,.0002097,87.9097,228.7841,106.0760,254.0601,0,U,48980,999,23961,-.31583E-4,.1E-7,0
ONEWEB-0263,2021-060Q,2026-06-17T03:31:49.249056,13.16595114,.000176,87.9097,228.7896,103.9636,256.1691,0,U,48981,999,23958,.38847E-3,.161E-5,0
ONEWEB-0264,2021-060R,2026-06-17T02:35:58.074720,13.16595458,.0001809,87.9099,228.7997,93.0812,267.0526,0,U,48982,999,23958,.34894E-4,.26E-6,0
ONEWEB-0266,2021-060T,2026-06-17T03:06:44.775360,13.16594060,.0002142,87.9098,228.7866,98.5150,261.6224,0,U,48984,999,23957,.47762E-4,.31E-6,0
ONEWEB-0267,2021-060U,2026-06-17T03:22:42.339648,13.16594679,.0001848,87.9098,228.7810,98.6157,261.5183,0,U,48985,999,23958,.16608E-3,.76E-6,0
ONEWEB-0268,2021-060V,2026-06-17T02:37:04.958688,13.16596324,.0002032,87.9102,228.7966,93.8558,266.2805,0,U,48986,999,23984,-.71766E-4,-.15E-6,0
ONEWEB-0269,2021-060W,2026-06-17T02:09:44.797248,13.16595052,.0002176,87.9090,228.8032,93.1587,266.9793,0,U,48987,999,23961,.14956E-3,.7E-6,0
ONEWEB-0270,2021-060X,2026-06-17T02:34:49.618272,13.16595462,.0001856,87.9104,228.7987,107.2258,252.9076,0,U,48988,999,23965,.12056E-3,.59E-6,0
ONEWEB-0271,2021-060Y,2026-06-17T02:16:35.344992,13.16594551,.0001804,87.9097,228.7914,101.1640,258.9694,0,U,48989,999,23965,.21854E-3,.96E-6,0
ONEWEB-0272,2021-060Z,2026-06-17T02:48:29.613888,13.16592954,.0001852,87.9097,228.7989,91.0400,269.0943,0,U,48990,999,23960,-.58384E-4,-.9E-7,0
ONEWEB-0273,2021-060AA,2026-06-17T03:20:25.431936,13.16594919,.0001943,87.9099,228.7937,100.9944,259.1406,0,U,48991,999,23958,.19145E-3,.86E-6,0
ONEWEB-0274,2021-060AB,2026-06-17T02:07:27.582816,13.16594289,.0001924,87.9089,228.8062,89.0407,271.0944,0,U,48992,999,23961,.24895E-3,.108E-5,0
ONEWEB-0275,2021-060AC,2026-06-17T03:40:56.995680,13.16594503,.0001936,87.9098,228.7824,96.4729,263.6622,0,U,48993,999,23955,.38067E-3,.158E-5,0
ONEWEB-0276,2021-060AD,2026-06-17T02:39:23.026752,13.16594372,.0001975,87.9096,228.7902,93.2151,266.9205,0,U,48994,999,23956,-.1031E-3,-.27E-6,0
